{
  "type": "FeatureCollection",
  "features": [
    {
      "type": "Feature",
      "properties": {
        "norad_id": 50032,
        "name": "COSMOS 1408 DEB",
        "group": "cosmos-1408-debris",
        "lat": 51.63139440122232,
        "lon": -135.56404046075662,
        "alt_km": 419.8061971862271,
        "timestamp": "2025-12-17T04:57:44.637310+00:00",
        "meta_object_name": "COSMOS 1408 DEB",
        "meta_object_id": "1982-092RU",
        "meta_epoch": "2025-12-16T22:11:46.882752",
        "meta_mean_motion": 15.45736909,
        "meta_eccentricity": 0.00156434,
        "meta_inclination": 82.5646,
        "meta_ra_of_asc_node": 54.2198,
        "meta_arg_of_pericenter": 192.7559,
        "meta_mean_anomaly": 167.3297,
        "meta_ephemeris_type": 0,
        "meta_classification_type": "U",
        "meta_norad_cat_id": 50032,
        "meta_element_set_no": 999,
        "meta_rev_at_epoch": 22668,
        "meta_bstar": 9.2296183e-05,
        "meta_mean_motion_dot": 4.522e-05,
        "meta_mean_motion_ddot": 0,
        "tle_line1": "1 50032U 82092RU  25350.92484818  .00004522  00000+0  92296-4 0  9994",
        "tle_line2": "2 50032  82.5646  54.2198 0015643 192.7559 167.3297 15.45736909226687"
      },
      "geometry": {
        "type": "Point",
        "coordinates": [
          -135.56404046075662,
          51.63139440122232
        ]
      }
    },
    {
      "type": "Feature",
      "properties": {
        "norad_id": 50058,
        "name": "COSMOS 1408 DEB",
        "group": "cosmos-1408-debris",
        "lat": -82.0543303433292,
        "lon": -46.9756287522082,
        "alt_km": 393.3626927617761,
        "timestamp": "2025-12-17T04:57:44.637327+00:00",
        "meta_object_name": "COSMOS 1408 DEB",
        "meta_object_id": "1982-092SW",
        "meta_epoch": "2025-12-16T17:04:42.251232",
        "meta_mean_motion": 15.64344337,
        "meta_eccentricity": 0.00162374,
        "meta_inclination": 82.6133,
        "meta_ra_of_asc_node": 65.1844,
        "meta_arg_of_pericenter": 85.3416,
        "meta_mean_anomaly": 274.9697,
        "meta_ephemeris_type": 0,
        "meta_classification_type": "U",
        "meta_norad_cat_id": 50058,
        "meta_element_set_no": 999,
        "meta_rev_at_epoch": 22866,
        "meta_bstar": 0.00028122875,
        "meta_mean_motion_dot": 0.00027129,
        "meta_mean_motion_ddot": 0,
        "tle_line1": "1 50058U 82092SW  25350.71160013  .00027129  00000+0  28123-3 0  9992",
        "tle_line2": "2 50058  82.6133  65.1844 0016237  85.3416 274.9697 15.64344337228665"
      },
      "geometry": {
        "type": "Point",
        "coordinates": [
          -46.9756287522082,
          -82.0543303433292
        ]
      }
    },
    {
      "type": "Feature",
      "properties": {
        "norad_id": 50404,
        "name": "COSMOS 1408 DEB",
        "group": "cosmos-1408-debris",
        "lat": -63.877721611492,
        "lon": -165.76664139292166,
        "alt_km": 571.065568293533,
        "timestamp": "2025-12-17T04:57:44.637338+00:00",
        "meta_object_name": "COSMOS 1408 DEB",
        "meta_object_id": "1982-092ADS",
        "meta_epoch": "2025-12-16T14:59:04.057728",
        "meta_mean_motion": 15.1439796,
        "meta_eccentricity": 0.01703279,
        "meta_inclination": 82.2039,
        "meta_ra_of_asc_node": 211.0543,
        "meta_arg_of_pericenter": 185.5733,
        "meta_mean_anomaly": 174.3611,
        "meta_ephemeris_type": 0,
        "meta_classification_type": "U",
        "meta_norad_cat_id": 50404,
        "meta_element_set_no": 999,
        "meta_rev_at_epoch": 21252,
        "meta_bstar": 0.0026122531,
        "meta_mean_motion_dot": 0.00069635,
        "meta_mean_motion_ddot": 0,
        "tle_line1": "1 50404U 82092ADS 25350.62435252  .00069635  00000+0  26123-2 0  9992",
        "tle_line2": "2 50404  82.2039 211.0543 0170327 185.5733 174.3611 15.14397960212527"
      },
      "geometry": {
        "type": "Point",
        "coordinates": [
          -165.76664139292166,
          -63.877721611492
        ]
      }
    },
    {
      "type": "Feature",
      "properties": {
        "norad_id": 50621,
        "name": "COSMOS 1408 DEB",
        "group": "cosmos-1408-debris",
        "lat": 15.95093151672842,
        "lon": -112.60761208546016,
        "alt_km": 380.08915834812615,
        "timestamp": "2025-12-17T04:57:44.637348+00:00",
        "meta_object_name": "COSMOS 1408 DEB",
        "meta_object_id": "1982-092ALR",
        "meta_epoch": "2025-12-16T20:32:59.843616",
        "meta_mean_motion": 15.56878541,
        "meta_eccentricity": 0.00289885,
        "meta_inclination": 82.5705,
        "meta_ra_of_asc_node": 69.8949,
        "meta_arg_of_pericenter": 137.3743,
        "meta_mean_anomaly": 222.9769,
        "meta_ephemeris_type": 0,
        "meta_classification_type": "U",
        "meta_norad_cat_id": 50621,
        "meta_element_set_no": 999,
        "meta_rev_at_epoch": 22314,
        "meta_bstar": 0.00031797579,
        "meta_mean_motion_dot": 0.00023354,
        "meta_mean_motion_ddot": 0,
        "tle_line1": "1 50621U 82092ALR 25350.85624819  .00023354  00000+0  31798-3 0  9990",
        "tle_line2": "2 50621  82.5705  69.8949 0028988 137.3743 222.9769 15.56878541223140"
      },
      "geometry": {
        "type": "Point",
        "coordinates": [
          -112.60761208546016,
          15.95093151672842
        ]
      }
    }
  ]
}